NORAD_CAT_ID,OBJECT_NAME,OBJECT_TYPE,EPOCH,MEAN_MOTION,ECCENTRICITY,INCLINATION,RA_OF_ASC_NODE,ARG_OF_PERICENTER,MEAN_ANOMALY,BSTAR,MEAN_MOTION_DOT,MEAN_MOTION_DDOT,TLE_LINE0,TLE_LINE1,TLE_LINE2,SEMIMAJOR_AXIS,PERIOD,APOGEE,PERIGEE,DECAYED
55960.0,STARLINK-5938,PAYLOAD,2024-06-10 03:41:28,14.98350615,0.0002867,70.0004,72.0092,273.7505,86.3326,0.00013006,1.46e-05,0.0,0 STARLINK-5938,1 55960U 23037AY  24162.15379772  .00001460  00000-0  13006-3 0  9990,2 55960  70.0004  72.0092 0002867 273.7505  86.3326 14.98350615 69319,6950.129,96.106,573.987,570.002,0.0
55960.0,STARLINK-5938,PAYLOAD,2024-06-10 11:42:09,14.98325784,0.0003086,70.001,71.1622,264.6213,95.4594,-2.3091e-05,-3.68e-06,0.0,0 STARLINK-5938,1 55960U 23037AY  24162.48761382 -.00000368  00000-0 -23091-4 0  9992,2 55960  70.0010  71.1622 0003086 264.6213  95.4594 14.98325784 69366,6950.206,96.107,574.216,569.926,0.0
55960.0,STARLINK-5938,PAYLOAD,2024-06-10 22:55:06,14.98320581,0.000273,70.0005,69.9885,269.4356,90.649,-4.0222e-05,-5.73e-06,0.0,0 STARLINK-5938,1 55960U 23037AY  24162.95494120 -.00000573  00000-0 -40222-4 0  9990,2 55960  70.0005  69.9885 0002730 269.4356  90.6490 14.98320581 69094,6950.222,96.108,573.984,570.19,0.0
55960.0,STARLINK-5938,PAYLOAD,2024-06-11 11:44:11,14.98329337,0.0002811,70.0006,68.6413,267.8246,92.2591,-7.9577e-05,-1.042e-05,0.0,0 STARLINK-5938,1 55960U 23037AY  24163.48901800 -.00001042  00000-0 -79577-4 0  9994,2 55960  70.0006  68.6413 0002811 267.8246  92.2591 14.98329337 69175,6950.195,96.107,574.014,570.106,0.0
55960.0,STARLINK-5938,PAYLOAD,2024-06-12 03:45:30,14.9834232,0.0002957,70.0002,66.9578,267.2024,92.8796,-3.5676e-05,-5.19e-06,0.0,0 STARLINK-5938,1 55960U 23037AY  24164.15660586 -.00000519  00000-0 -35676-4 0  9992,2 55960  70.0002  66.9578 0002957 267.2024  92.8796 14.98342320 69612,6950.155,96.106,574.075,569.965,0.0
55960.0,STARLINK-5938,PAYLOAD,2024-06-12 21:23:00,14.98318031,0.0002828,70.0006,65.1063,266.1566,93.927,4.8889e-05,4.9e-06,0.0,0 STARLINK-5938,1 55960U 23037AY  24164.89098014  .00000490  00000-0  48889-4 0  9990,2 55960  70.0006  65.1063 0002828 266.1566  93.9270 14.98318031 69725,6950.23,96.108,574.06,570.129,0.0
55960.0,STARLINK-5938,PAYLOAD,2024-06-13 10:12:05,14.98323607,0.0002717,70.001,63.7601,267.1936,92.8912,7.2449e-05,7.71e-06,0.0,0 STARLINK-5938,1 55960U 23037AY  24165.42505858  .00000771  00000-0  72449-4 0  9990,2 55960  70.0010  63.7601 0002717 267.1936  92.8912 14.98323607 69806,6950.213,96.107,573.966,570.189,0.0
55960.0,STARLINK-5938,PAYLOAD,2024-06-13 21:25:01,14.98331549,0.0002892,70.0003,62.5818,266.9043,93.1785,-1.1764e-05,-2.33e-06,0.0,0 STARLINK-5938,1 55960U 23037AY  24165.89237527 -.00000233  00000-0 -11764-4 0  9994,2 55960  70.0003  62.5818 0002892 266.9043  93.1785 14.98331549 69531,6950.188,96.107,574.063,570.043,0.0
55960.0,STARLINK-5938,PAYLOAD,2024-06-14 10:14:05,14.98331084,0.0002853,70.0005,61.2351,268.2742,91.809,-6.4154e-05,-8.58e-06,0.0,0 STARLINK-5938,1 55960U 23037AY  24166.42645569 -.00000858  00000-0 -64154-4 0  9997,2 55960  70.0005  61.2351 0002853 268.2742  91.8090 14.98331084 69616,6950.19,96.107,574.037,570.072,0.0
55960.0,STARLINK-5938,PAYLOAD,2024-06-14 21:27:02,14.98326394,0.0002899,70.0009,60.0582,263.5245,96.5584,2.1921e-05,1.69e-06,0.0,0 STARLINK-5938,1 55960U 23037AY  24166.89377721  .00000169  00000-0  21921-4 0  9998,2 55960  70.0009  60.0582 0002899 263.5245  96.5584 14.98326394 69684,6950.204,96.107,574.084,570.054,0.0
55960.0,STARLINK-5938,PAYLOAD,2024-06-15 10:16:07,14.98282237,0.0002801,70.0001,58.7091,267.3623,92.7215,0.00084216,9.957e-05,0.0,0 STARLINK-5938,1 55960U 23037AY  24167.42786822  .00009957  00000-0  84216-3 0  9993,2 55960  70.0001  58.7091 0002801 267.3623  92.7215 14.98282237 69765,6950.341,96.11,574.152,570.259,0.0
55960.0,STARLINK-5938,PAYLOAD,2024-06-15 23:05:11,14.9833049,0.0002843,69.9999,57.3616,263.261,96.8225,3.2982e-05,3.01e-06,0.0,0 STARLINK-5938,1 55960U 23037AY  24167.96193409  .00000301  00000-0  32982-4 0  9993,2 55960  69.9999  57.3616 0002843 263.2610  96.8225 14.98330490 69843,6950.191,96.107,574.032,570.08,0.0
55960.0,STARLINK-5938,PAYLOAD,2024-06-16 10:18:07,14.98328388,0.0003003,70.0002,56.1834,268.5814,91.5001,2.9918e-05,2.64e-06,0.0,0 STARLINK-5938,1 55960U 23037AY  24168.42925495  .00000264  00000-0  29918-4 0  9996,2 55960  70.0002  56.1834 0003003 268.5814  91.5001 14.98328388 69918,6950.198,96.107,574.15,569.976,0.0
55960.0,STARLINK-5938,PAYLOAD,2024-06-16 23:07:12,14.98328881,0.000316,70.0,54.8383,270.3438,89.7358,1.018e-05,2.8e-07,0.0,0 STARLINK-5938,1 55960U 23037AY  24168.96333549  .00000028  00000-0  10180-4 0  9997,2 55960  70.0000  54.8383 0003160 270.3438  89.7358 14.98328881 69997,6950.196,96.107,574.258,569.865,0.0
55960.0,STARLINK-5938,PAYLOAD,2024-06-17 21:33:05,14.98327405,0.0003096,70.0,52.4817,271.5714,88.509,5.4776e-06,-2.8e-07,0.0,0 STARLINK-5938,1 55960U 23037AY  24169.89797698 -.00000028  00000-0  54776-5 0  9990,2 55960  70.0000  52.4817 0003096 271.5714  88.5090 14.98327405 70477,6950.201,96.107,574.218,569.914,0.0
55960.0,STARLINK-5938,PAYLOAD,2024-06-17 23:09:13,14.98331598,0.0003139,69.9999,52.3136,271.6597,88.4202,-1.9086e-05,-3.21e-06,0.0,0 STARLINK-5938,1 55960U 23037AY  24169.96473489 -.00000321  00000-0 -19086-4 0  9998,2 55960  69.9999  52.3136 0003139 271.6597  88.4202 14.98331598 70148,6950.188,96.107,574.235,569.871,0.0
55960.0,STARLINK-5938,PAYLOAD,2024-06-18 02:21:28,14.98334649,0.0003095,70.0,51.9767,271.6625,88.4179,1.6909e-05,1.09e-06,0.0,0 STARLINK-5938,1 55960U 23037AY  24170.09825186  .00000109  00000-0  16909-4 0  9992,2 55960  70.0000  51.9767 0003095 271.6625  88.4179 14.98334649 70505,6950.179,96.107,574.195,569.892,0.0
55960.0,STARLINK-5938,PAYLOAD,2024-06-18 19:58:57,14.98332184,0.0003035,70.0001,50.125,272.7279,87.3533,5.3102e-05,5.41e-06,0.0,0 STARLINK-5938,1 55960U 23037AY  24170.83261117  .00000541  00000-0  53102-4 0  9998,2 55960  70.0001  50.1250 0003035 272.7279  87.3533 14.98332184 70273,6950.186,96.107,574.161,569.942,0.0
55960.0,STARLINK-5938,PAYLOAD,2024-06-19 02:23:29,14.98335018,0.000294,70.0004,49.4523,271.7456,88.3366,8.6199e-05,9.36e-06,0.0,0 STARLINK-5938,1 55960U 23037AY  24171.09964784  .00000936  00000-0  86199-4 0  9997,2 55960  70.0004  49.4523 0002940 271.7456  88.3366 14.98335018 70656,6950.177,96.107,574.086,569.999,0.0
55960.0,STARLINK-5938,PAYLOAD,2024-06-19 21:37:06,14.98329129,0.0002753,70.0009,47.4344,262.8063,97.2783,-3.5105e-05,-5.12e-06,0.0,0 STARLINK-5938,1 55960U 23037AY  24171.90077395 -.00000512  00000-0 -35105-4 0  9993,2 55960  70.0009  47.4344 0002753 262.8063  97.2783 14.98329129 70778,6950.196,96.107,573.974,570.147,0.0
55960.0,STARLINK-5938,PAYLOAD,2024-06-20 08:50:03,14.9832813,0.0002784,70.0008,46.2553,267.4154,92.6687,-4.6287e-05,-6.45e-06,0.0,0 STARLINK-5938,1 55960U 23037AY  24172.36809523 -.00000645  00000-0 -46287-4 0  9990,2 55960  70.0008  46.2553 0002784 267.4154  92.6687 14.98328130 70506,6950.199,96.107,573.999,570.129,0.0
55960.0,STARLINK-5938,PAYLOAD,2024-06-20 21:39:08,14.98328251,0.0002859,70.0006,44.9082,267.6746,92.4086,-8.9608e-05,-1.162e-05,0.0,0 STARLINK-5938,1 55960U 23037AY  24172.90217637 -.00001162  00000-0 -89608-4 0  9998,2 55960  70.0006  44.9082 0002859 267.6746  92.4086 14.98328251 70581,6950.198,96.107,574.05,570.076,0.0
55960.0,STARLINK-5938,PAYLOAD,2024-06-20 23:15:16,14.98328821,0.0002844,70.0005,44.7399,267.7402,92.3431,-7.9958e-05,-1.047e-05,0.0,0 STARLINK-5938,1 55960U 23037AY  24172.96893578 -.00001047  00000-0 -79958-4 0  9997,2 55960  70.0005  44.7399 0002844 267.7402  92.3431 14.98328821 70938,6950.197,96.107,574.038,570.085,0.0
55960.0,STARLINK-5938,PAYLOAD,2024-06-21 02:27:32,14.98330484,0.0002928,70.0003,44.4026,269.0177,91.0647,-5.5109e-05,-7.5e-06,0.0,0 STARLINK-5938,1 55960U 23037AY  24173.10245409 -.00000750  00000-0 -55109-4 0  9990,2 55960  70.0003  44.4026 0002928 269.0177  91.0647 14.98330484 70615,6950.191,96.107,574.091,570.021,0.0
55960.0,STARLINK-5938,PAYLOAD,2024-06-21 21:41:08,14.98329768,0.0002952,70.0003,42.3827,268.5624,91.5197,4.707e-05,4.69e-06,0.0,0 STARLINK-5938,1 55960U 23037AY  24173.90357168  .00000469  00000-0  47070-4 0  9997,2 55960  70.0003  42.3827 0002952 268.5624  91.5197 14.98329768 70730,6950.194,96.107,574.11,570.007,0.0
55960.0,STARLINK-5938,PAYLOAD,2024-06-22 00:53:24,14.98329895,0.0003015,70.0002,42.0454,266.3857,93.6957,7.7234e-05,8.29e-06,0.0,0 STARLINK-5938,1 55960U 23037AY  24174.03709048  .00000829  00000-0  77234-4 0  9995,2 55960  70.0002  42.0454 0003015 266.3857  93.6957 14.98329895 71095,6950.193,96.107,574.154,569.963,0.0
55960.0,STARLINK-5938,PAYLOAD,2024-06-22 21:43:09,14.98328796,0.000299,70.0001,39.857,267.6395,92.4422,4.0814e-05,3.94e-06,0.0,0 STARLINK-5938,1 55960U 23037AY  24174.90497207  .00000394  00000-0  40814-4 0  9993,2 55960  70.0001  39.8570 0002990 267.6395  92.4422 14.98328796 70888,6950.197,96.107,574.14,569.984,0.0
55960.0,STARLINK-5938,PAYLOAD,2024-06-22 23:19:17,14.98329227,0.0002986,70.0001,39.6887,267.6561,92.4256,4.455e-05,4.39e-06,0.0,0 STARLINK-5938,1 55960U 23037AY  24174.97173169  .00000439  00000-0  44550-4 0  9999,2 55960  70.0001  39.6887 0002986 267.6561  92.4256 14.98329227 70893,6950.195,96.107,574.136,569.985,0.0
55960.0,STARLINK-5938,PAYLOAD,2024-06-23 20:09:02,14.98331351,0.0002949,70.0004,37.5009,268.1376,91.9446,-1.5768e-05,-2.81e-06,0.0,0 STARLINK-5938,1 55960U 23037AY  24175.83961150 -.00000281  00000-0 -15768-4 0  9996,2 55960  70.0004  37.5009 0002949 268.1376  91.9446 14.98331351 71367,6950.189,96.107,574.103,570.004,0.0
55960.0,STARLINK-5938,PAYLOAD,2024-06-23 21:45:10,14.98332249,0.0002928,70.0004,37.3326,267.7072,92.3752,-3.7708e-06,-1.38e-06,0.0,0 STARLINK-5938,1 55960U 23037AY  24175.90637050 -.00000138  00000-0 -37708-5 0  9993,2 55960  70.0004  37.3326 0002928 267.7072  92.3752 14.98332249 71038,6950.186,96.107,574.086,570.016,0.0
